FLOCK 4Q-35             
1 58309U 23174BF  25136.74090298  .00014957  00000+0  43986-3 0  9996
2 58309  97.4180 216.5929 0010781 131.3144 228.9029 15.35134295 84624
FLOCK 4Q-14             
1 58311U 23174BH  25136.77093572  .00064294  00000+0  17142-2 0  9993
2 58311  97.4119 215.6642 0007846 145.2816 214.8943 15.37894266 84597
FLOCK 4Q-20             
1 58313U 23174BK  25136.72792421  .00018072  00000+0  48558-3 0  9998
2 58313  97.4199 217.4377 0010601 125.4694 234.7542 15.37914629 84670
FLOCK 4Q-6              
1 58315U 23174BM  25136.71114937  .00077346  00000+0  18569-2 0  9996
2 58315  97.4099 215.8785 0009634 156.6172 203.5514 15.41031004 84605
FLOCK 4Q-34             
1 58316U 23174BN  25136.72415881  .00015999  00000+0  45688-3 0  9999
2 58316  97.4154 216.4971 0010568 125.6131 234.6098 15.36045181 84631
FLOCK 4Q-7              
1 58318U 23174BQ  25136.74058097  .00014288  00000+0  43309-3 0  9993
2 58318  97.4206 216.3941 0010939 123.7205 236.5082 15.34187845 84603
FLOCK 4Q-15             
1 58319U 23174BR  25136.76968234  .00014129  00000+0  39425-3 0  9997
2 58319  97.4193 217.2080 0010224 118.9389 241.2882 15.36800235 84663
FLOCK 4Q-2              
1 58320U 23174BS  25136.89545039  .00012104  00000+0  38651-3 0  9998
2 58320  97.4146 215.7838 0010353 122.9182 237.3057 15.32573484 84609
PROTOMETHEE             
1 58321U 23174BT  25136.86176606  .00006160  00000+0  24667-3 0  9993
2 58321  97.4127 213.0082 0010205 126.0705 234.1480 15.25367353 84437
FLOCK 4Q-9              
1 58322U 23174BU  25136.76668895  .00011745  00000+0  38076-3 0  9993
2 58322  97.4170 215.7757 0010687 124.3145 235.9110 15.32092141 84580
OBSERVER-1A             
1 58323U 23174BV  25136.86382667  .00009871  00000+0  36063-3 0  9996
2 58323  97.4260 214.7370 0011798 126.7197 233.5128 15.28240903 84486
PICO-01A003             
1 58326U 23174BY  25136.88170295  .00012337  00000+0  41649-3 0  9990
2 58326  97.4134 214.3543 0009591 138.0531 222.1446 15.30782627 84511
FLOCK 4Q-4              
1 58327U 23174BZ  25136.74051684  .00010904  00000+0  35330-3 0  9994
2 58327  97.4141 215.3262 0009666 141.1491 219.0447 15.32141404 84567
FLOCK 4Q-13             
1 58328U 23174CA  25136.76727291  .00012375  00000+0  38012-3 0  9995
2 58328  97.4257 216.3283 0010438 139.4033 220.7990 15.33806192 84599
FLOCK 4Q-21             
1 58329U 23174CB  25136.79242215  .00016565  00000+0  45643-3 0  9990
2 58329  97.4208 217.1005 0009288 141.2030 218.9883 15.37165960 84658
BRO-10                  
1 58331U 23174CD  25136.89375823  .00013639  00000+0  36917-3 0  9999
2 58331  97.4105 217.8893 0008922 106.9774 253.2449 15.37768256 84765
OUTPOST MISSION 2       
1 58334U 23174CG  25136.78620676  .00015116  00000+0  44299-3 0  9993
2 58334  97.4229 216.9141 0010267 113.4735 246.7589 15.35247134 84639
LEMUR-2-JK0903EM1407    
1 58336U 23174CJ  25136.75487612  .00013508  00000+0  40777-3 0  9993
2 58336  97.4157 216.4518 0009064 108.0409 252.1822 15.34350392 84647
LEMUR-2-MJR092620       
1 58340U 23174CN  25136.75531778  .00008637  00000+0  25941-3 0  9994
2 58340  97.4221 217.2145 0009528 105.7245 254.5049 15.34629447 84665
NINJASAT                
1 58341U 23174CP  25136.89879319  .00076315  00000+0  95457-3 0  9993
2 58341  97.4165 222.0926 0004934 107.0065 253.1733 15.59551033 85012
PEARL 1C                
1 58342U 23174CQ  25136.88733879  .00040366  00000+0  74216-3 0  9990
2 58342  97.4177 220.6125 0008366  93.4600 266.7607 15.49071785 84904
O3B MPOWER F5           
1 58346U 23175A   25136.52580575 -.00000015  00000+0  00000+0 0  9993
2 58346   0.0616 353.8807 0006498  47.1913 318.9795  5.00116870 29592
O3B MPOWER F6           
1 58347U 23175B   25136.22600342 -.00000015  00000+0  00000+0 0  9996
2 58347   0.0536 354.4489 0007593  60.1979 305.4268  5.00117282 28482
HAIYANG-3A              
1 58349U 23176A   25136.88392763  .00000152  00000+0  70114-4 0  9995
2 58349  98.5829 213.5109 0011125 112.4652 247.7712 14.34102226 78510
STARLINK-30907          
1 58352U 23177B   25136.41145598 -.00000258  00000+0 -40188-5 0  9999
2 58352  43.0035 167.2320 0001213 272.1289  87.9414 15.02535673 83505
STARLINK-30896          
1 58353U 23177C   25136.91502751  .00001915  00000+0  83023-4 0  9996
2 58353  43.0027  83.3533 0001503 248.0787 111.9904 15.25919943 84467
STARLINK-30832          
1 58354U 23177D   25136.17428825  .00000515  00000+0  53166-4 0  9994
2 58354  43.0031 168.0361 0001431 270.7773  89.2906 15.02537038 83419
STARLINK-30903          
1 58355U 23177E   25136.15332283  .00000678  00000+0  65271-4 0  9995
2 58355  43.0018 168.7465 0001563 278.7668  81.2998 15.02535583 83454
STARLINK-30905          
1 58356U 23177F   25136.40701411  .00000135  00000+0  25069-4 0  9996
2 58356  43.0026 167.1734 0001609 281.5561  78.5100 15.02537721 83439
STARLINK-30842          
1 58357U 23177G   25136.38817178 -.00000846  00000+0 -47556-4 0  9998
2 58357  43.0033 153.2591 0001513 262.1318  97.9353 15.02545072 83651
STARLINK-30858          
1 58358U 23177H   25136.14665419  .00000624  00000+0  61229-4 0  9997
2 58358  43.0030 168.6949 0001404 276.6298  83.4385 15.02536520 83464
STARLINK-30878          
1 58359U 23177J   25136.43464621  .00001328  00000+0  11333-3 0  9994
2 58359  43.0022 166.5458 0001352 274.9733  85.0955 15.02538432 83505
STARLINK-30897          
1 58360U 23177K   25135.08633757  .00000416  00000+0  45831-4 0  9992
2 58360  43.0029 174.4996 0001318 271.5297  88.5394 15.02538467 83298
STARLINK-30885          
1 58361U 23177L   25136.40591399  .00000046  00000+0  18477-4 0  9990
2 58361  43.0030 167.1988 0001338 272.2082  87.8607 15.02532468 83501
STARLINK-30890          
1 58362U 23177M   25136.13666501  .00000082  00000+0  21125-4 0  9993
2 58362  43.0028 168.6143 0001357 274.9007  85.1681 15.02534703 83401
STARLINK-30909          
1 58363U 23177N   25136.40146829  .00000175  00000+0  28021-4 0  9995
2 58363  43.0033 167.1631 0001537 281.1185  78.9485 15.02536326 83495
STARLINK-30904          
1 58364U 23177P   25136.40443511  .00001676  00000+0  13914-3 0  9995
2 58364  43.0027 165.4645 0001368 282.4236  77.6453 15.02537315 83511
STARLINK-30918          
1 58365U 23177Q   25136.12667688  .00000428  00000+0  46776-4 0  9995
2 58365  43.0026 168.5420 0001323 268.6960  91.3731 15.02536168 83457
STARLINK-30892          
1 58366U 23177R   25136.13000647  .00000557  00000+0  56304-4 0  9994
2 58366  43.0032 168.5662 0001597 274.0447  86.0213 15.02538521 83469
STARLINK-30891          
1 58367U 23177S   25136.38925968 -.00000483  00000+0 -20659-4 0  9998
2 58367  43.0024 167.0680 0001522 268.7485  91.3183 15.02533977 83437
STARLINK-30889          
1 58368U 23177T   25136.12556659  .00000672  00000+0  64828-4 0  9992
2 58368  43.0022 168.5312 0000976 257.2267 102.8466 15.02538437 83457
STARLINK-30870          
1 58369U 23177U   25136.38703876  .00000313  00000+0  38253-4 0  9991
2 58369  43.0022 167.0506 0001261 279.1203  80.9496 15.02535010 83495
STARLINK-30888          
1 58370U 23177V   25136.09239639  .00000461  00000+0  49239-4 0  9992
2 58370  43.0033 169.1302 0001561 286.9216  73.1455 15.02528240 83451
STARLINK-30859          
1 58371U 23177W   25136.14887465 -.00028304  00000+0 -20807-2 0  9991
2 58371  43.0037 168.6740 0001907 257.3715 102.6914 15.02677713 83465
STARLINK-30884          
1 58372U 23177X   25136.44798443 -.00002100  00000+0 -14050-3 0  9992
2 58372  43.0012 166.6515 0001223 281.3198  78.7507 15.02516602 83505
STARLINK-30852          
1 58373U 23177Y   25136.14332287  .00001282  00000+0  10997-3 0  9994
2 58373  43.0034 168.6307 0001303 275.2592  84.8102 15.02535519 83451
STARLINK-30911          
1 58374U 23178A   25136.70267422 -.00000335  00000+0  81499-6 0  9993
2 58374  53.1611 300.3834 0001020 104.3035 255.8079 15.30188322 84412
STARLINK-30894          
1 58375U 23178B   25136.84385824 -.00000776  00000+0 -14095-4 0  9992
2 58375  53.1609 299.8488 0001171  86.5300 273.5834 15.30187765 84371
STARLINK-30910          
1 58376U 23178C   25136.71639215 -.00000512  00000+0 -51747-5 0  9999
2 58376  53.1618 300.4746 0001163 108.9788 251.1339 15.30190998 84428
STARLINK-30914          
1 58377U 23178D   25136.77009841  .00000100  00000+0  15487-4 0  9993
2 58377  53.1606 300.0856 0001073  88.6385 271.4738 15.30188611 84439
STARLINK-30920          
1 58378U 23178E   25136.70449350  .00047648  00000+0  11409-2 0  9996
2 58378  53.1594 290.4864 0001591  17.5662 342.5398 15.40994277 84561
STARLINK-30882          
1 58379U 23178F   25136.71955805  .00000018  00000+0  12733-4 0  9998
2 58379  53.1608 300.4929 0001315 104.2006 255.9141 15.30191260 84420
STARLINK-30915          
1 58380U 23178G   25136.49020858  .00000823  00000+0  39912-4 0  9998
2 58380  53.1591 211.8036 0001157  85.1021 275.0112 15.30191047 85521
STARLINK-30923          
1 58381U 23178H   25136.72904860 -.00000826  00000+0 -15756-4 0  9994
2 58381  53.1611 300.5064 0001056  71.9921 288.1195 15.30196505 84352
STARLINK-30927          
1 58382U 23178J   25136.87341166 -.00000792  00000+0 -14610-4 0  9995
2 58382  53.1602 300.0270 0001159  91.9417 268.1717 15.30186017 84426
STARLINK-30921          
1 58383U 23178K   25136.72588794  .00000000  00000+0  12106-4 0  9998
2 58383  53.1607 300.5331 0000999 107.2604 252.8506 15.30193242 84407
STARLINK-30825          
1 58384U 23178L   25136.77537030  .00000383  00000+0  25062-4 0  9990
2 58384  53.1617 300.0993 0001389  73.9270 286.1884 15.30191095 84436
STARLINK-30930          
1 58385U 23178M   25136.76482343 -.00000515  00000+0 -52856-5 0  9997
2 58385  53.1607 300.0596 0001070 109.6703 250.4413 15.30188790 84306
STARLINK-30929          
1 58386U 23178N   25136.89236757 -.00000099  00000+0  87789-5 0  9997
2 58386  53.1605 299.9431 0001077 116.0262 244.0850 15.30189533 84421
